start=new Date('2023-04-13T00:00:00.000Z').valueOf();
sats=[{"EPHEMERIS_TYPE":"0","COUNTRY_CODE":"US","FILE":"3886349","PERIAPSIS":"538.963","PERIOD":"95.438","REF_FRAME":"TEME","RA_OF_ASC_NODE":"354.5018","CENTER_NAME":"EARTH","SEMIMAJOR_AXIS":"6917.889","SITE":"AFETR","GP_ID":"229984818","OBJECT_NAME":"STARLINK-4680","OBJECT_ID":"2022-107BB","NORAD_CAT_ID":"53749","MEAN_MOTION":"15.08837346","RCS_SIZE":"LARGE","CLASSIFICATION_TYPE":"U","ARG_OF_PERICENTER":"108.7360","LAUNCH_DATE":"2022-09-05","TLE_LINE1":"1 53749U 22107BB  23102.08734058 -.00000820  00000-0 -33417-4 0  9997","MEAN_MOTION_DOT":"-0.00000820","APOAPSIS":"540.544","TIME_SYSTEM":"UTC","REV_AT_EPOCH":"3417","EPOCH":"2023-04-12T02:05:46.226112","DECAY_DATE":null,"MEAN_MOTION_DDOT":"0.0000000000000","ECCENTRICITY":"0.00011430","BSTAR":"-0.00003341700000","TLE_LINE2":"2 53749  53.2167 354.5018 0001143 108.7360 251.3757 15.08837346 34174","ELEMENT_SET_NO":"999","MEAN_ELEMENT_THEORY":"SGP4","OBJECT_TYPE":"PAYLOAD","INCLINATION":"53.2167","MEAN_ANOMALY":"251.3757"},{"MEAN_ANOMALY":"275.5324","INCLINATION":"53.2164","ELEMENT_SET_NO":"999","MEAN_ELEMENT_THEORY":"SGP4","OBJECT_TYPE":"PAYLOAD","BSTAR":"0.00005361300000","TLE_LINE2":"2 53750  53.2164 354.8594 0001060  84.5789 275.5324 15.08836526 34176","MEAN_MOTION_DDOT":"0.0000000000000","ECCENTRICITY":"0.00010600","REV_AT_EPOCH":"3417","EPOCH":"2023-04-12T00:35:41.843904","DECAY_DATE":null,"APOAPSIS":"540.489","MEAN_MOTION_DOT":"0.00000565","TIME_SYSTEM":"UTC","ARG_OF_PERICENTER":"84.5789","LAUNCH_DATE":"2022-09-05","TLE_LINE1":"1 53750U 22107BC  23102.02478986  .00000565  00000-0  53613-4 0  9992","CLASSIFICATION_TYPE":"U","RCS_SIZE":"LARGE","MEAN_MOTION":"15.08836526","NORAD_CAT_ID":"53750","OBJECT_NAME":"STARLINK-4612","OBJECT_ID":"2022-107BC","GP_ID":"229984304","PERIOD":"95.438","REF_FRAME":"TEME","RA_OF_ASC_NODE":"354.8594","CENTER_NAME":"EARTH","SEMIMAJOR_AXIS":"6917.891","SITE":"AFETR","PERIAPSIS":"539.023","FILE":"3886349","EPHEMERIS_TYPE":"0","COUNTRY_CODE":"US"},{"PERIAPSIS":"538.977","FILE":"3886127","COUNTRY_CODE":"US","EPHEMERIS_TYPE":"0","GP_ID":"229954248","SEMIMAJOR_AXIS":"6917.882","SITE":"AFETR","REF_FRAME":"TEME","PERIOD":"95.438","RA_OF_ASC_NODE":"13.8478","CENTER_NAME":"EARTH","NORAD_CAT_ID":"53773","OBJECT_ID":"2022-111A","OBJECT_NAME":"STARLINK-4718","CLASSIFICATION_TYPE":"U","RCS_SIZE":"LARGE","MEAN_MOTION":"15.08839608","TIME_SYSTEM":"UTC","MEAN_MOTION_DOT":"0.00001155","APOAPSIS":"540.517","TLE_LINE1":"1 53773U 22111A   23102.17746940  .00001155  00000-0  90667-4 0  9992","ARG_OF_PERICENTER":"96.6130","LAUNCH_DATE":"2022-09-11","ECCENTRICITY":"0.00011130","MEAN_MOTION_DDOT":"0.0000000000000","DECAY_DATE":null,"REV_AT_EPOCH":"3234","EPOCH":"2023-04-12T04:15:33.356160","MEAN_ELEMENT_THEORY":"SGP4","OBJECT_TYPE":"PAYLOAD","ELEMENT_SET_NO":"999","BSTAR":"0.00009066700000","TLE_LINE2":"2 53773  53.2176  13.8478 0001113  96.6130 263.4989 15.08839608 32344","MEAN_ANOMALY":"263.4989","INCLINATION":"53.2176"},{"EPHEMERIS_TYPE":"0","COUNTRY_CODE":"US","PERIAPSIS":"538.871","FILE":"3886127","RA_OF_ASC_NODE":"14.1224","PERIOD":"95.438","REF_FRAME":"TEME","CENTER_NAME":"EARTH","SEMIMAJOR_AXIS":"6917.886","SITE":"AFETR","GP_ID":"229954247","OBJECT_NAME":"STARLINK-4719","OBJECT_ID":"2022-111B","NORAD_CAT_ID":"53774","MEAN_MOTION":"15.08838048","RCS_SIZE":"LARGE","CLASSIFICATION_TYPE":"U","ARG_OF_PERICENTER":"89.7897","LAUNCH_DATE":"2022-09-11","TLE_LINE1":"1 53774U 22111B   23102.10754533 -.00000287  00000-0  32537-7 0  9994","APOAPSIS":"540.631","MEAN_MOTION_DOT":"-0.00000287","TIME_SYSTEM":"UTC","REV_AT_EPOCH":"3233","EPOCH":"2023-04-12T02:34:51.916512","DECAY_DATE":null,"ECCENTRICITY":"0.00012720","MEAN_MOTION_DDOT":"0.0000000000000","BSTAR":"0.00000003253700","TLE_LINE2":"2 53774  53.2182  14.1224 0001272  89.7897 270.3241 15.08838048 32338","ELEMENT_SET_NO":"999","MEAN_ELEMENT_THEORY":"SGP4","OBJECT_TYPE":"PAYLOAD","INCLINATION":"53.2182","MEAN_ANOMALY":"270.3241"},{"TLE_LINE1":"1 53775U 22111C   23102.73411011 -.00002666  00000-0 -14948-3 0  9991","LAUNCH_DATE":"2022-09-11","ARG_OF_PERICENTER":"94.4925","TIME_SYSTEM":"UTC","APOAPSIS":"540.505","MEAN_MOTION_DOT":"-0.00002666","DECAY_DATE":null,"EPOCH":"2023-04-12T17:37:07.113504","REV_AT_EPOCH":"3256","ECCENTRICITY":"0.00011140","MEAN_MOTION_DDOT":"0.0000000000000","TLE_LINE2":"2 53775  53.2180   1.6616 0001114  94.4925 265.6195 15.08843762 32562","BSTAR":"-0.00014948000000","OBJECT_TYPE":"PAYLOAD","MEAN_ELEMENT_THEORY":"SGP4","ELEMENT_SET_NO":"999","INCLINATION":"53.2180","MEAN_ANOMALY":"265.6195","COUNTRY_CODE":"US","EPHEMERIS_TYPE":"0","PERIAPSIS":"538.963","FILE":"3886490","SITE":"AFETR","SEMIMAJOR_AXIS":"6917.869","CENTER_NAME":"EARTH","RA_OF_ASC_NODE":"1.6616","PERIOD":"95.437","REF_FRAME":"TEME","GP_ID":"229989500","OBJECT_ID":"2022-111C","OBJECT_NAME":"STARLINK-4722","NORAD_CAT_ID":"53775","MEAN_MOTION":"15.08843762","RCS_SIZE":"LARGE","CLASSIFICATION_TYPE":"U"},{"CLASSIFICATION_TYPE":"U","RCS_SIZE":"LARGE","MEAN_MOTION":"15.08837889","NORAD_CAT_ID":"53776","OBJECT_ID":"2022-111D","OBJECT_NAME":"STARLINK-4708","GP_ID":"229989510","SITE":"AFETR","SEMIMAJOR_AXIS":"6917.887","CENTER_NAME":"EARTH","REF_FRAME":"TEME","PERIOD":"95.438","RA_OF_ASC_NODE":"9.8859","FILE":"3886491","PERIAPSIS":"538.691","COUNTRY_CODE":"US","EPHEMERIS_TYPE":"0","MEAN_ANOMALY":"268.5176","INCLINATION":"53.2178","OBJECT_TYPE":"PAYLOAD","MEAN_ELEMENT_THEORY":"SGP4","ELEMENT_SET_NO":"999","TLE_LINE2":"2 53776  53.2178   9.8859 0001534  91.5992 268.5176 15.08837889 32381","BSTAR":"0.00003985000000","ECCENTRICITY":"0.00015340","MEAN_MOTION_DDOT":"0.0000000000000","DECAY_DATE":null,"EPOCH":"2023-04-12T00:00:37.721376","REV_AT_EPOCH":"3238","TIME_SYSTEM":"UTC","MEAN_MOTION_DOT":"0.00000346","APOAPSIS":"540.813","TLE_LINE1":"1 53776U 22111D   23102.00043659  .00000346  00000-0  39850-4 0  9992","LAUNCH_DATE":"2022-09-11","ARG_OF_PERICENTER":"91.5992"},{"PERIOD":"95.438","REF_FRAME":"TEME","RA_OF_ASC_NODE":"4.8873","CENTER_NAME":"EARTH","SEMIMAJOR_AXIS":"6917.901","SITE":"AFETR","GP_ID":"229984572","EPHEMERIS_TYPE":"0","COUNTRY_CODE":"US","PERIAPSIS":"538.940","FILE":"3886349","MEAN_MOTION":"15.08833140","RCS_SIZE":"LARGE","CLASSIFICATION_TYPE":"U","OBJECT_NAME":"STARLINK-4664","OBJECT_ID":"2022-111E","NORAD_CAT_ID":"53777","REV_AT_EPOCH":"3326","EPOCH":"2023-04-11T23:57:16.111296","DECAY_DATE":null,"ECCENTRICITY":"0.00011940","MEAN_MOTION_DDOT":"0.0000000000000","ARG_OF_PERICENTER":"89.5289","LAUNCH_DATE":"2022-09-11","TLE_LINE1":"1 53777U 22111E   23101.99810314 -.00000916  00000-0 -39485-4 0  9999","MEAN_MOTION_DOT":"-0.00000916","APOAPSIS":"540.592","TIME_SYSTEM":"UTC","INCLINATION":"53.2173","MEAN_ANOMALY":"270.5840","BSTAR":"-0.00003948500000","TLE_LINE2":"2 53777  53.2173   4.8873 0001194  89.5289 270.5840 15.08833140 33261","ELEMENT_SET_NO":"999","MEAN_ELEMENT_THEORY":"SGP4","OBJECT_TYPE":"PAYLOAD"},{"MEAN_MOTION":"15.08833175","RCS_SIZE":"LARGE","CLASSIFICATION_TYPE":"U","OBJECT_ID":"2022-111F","OBJECT_NAME":"STARLINK-4709","NORAD_CAT_ID":"53778","SEMIMAJOR_AXIS":"6917.901","SITE":"AFETR","PERIOD":"95.438","REF_FRAME":"TEME","RA_OF_ASC_NODE":"8.7406","CENTER_NAME":"EARTH","GP_ID":"229984820","COUNTRY_CODE":"US","EPHEMERIS_TYPE":"0","FILE":"3886349","PERIAPSIS":"538.973","INCLINATION":"53.2173","MEAN_ANOMALY":"267.8395","BSTAR":"-0.00007053100000","TLE_LINE2":"2 53778  53.2173   8.7406 0001146  92.2728 267.8395 15.08833175 32411","MEAN_ELEMENT_THEORY":"SGP4","OBJECT_TYPE":"PAYLOAD","ELEMENT_SET_NO":"999","DECAY_DATE":null,"REV_AT_EPOCH":"3241","EPOCH":"2023-04-12T03:47:02.446944","ECCENTRICITY":"0.00011460","MEAN_MOTION_DDOT":"0.0000000000000","TLE_LINE1":"1 53778U 22111F   23102.15766721 -.00001410  00000-0 -70531-4 0  9998","ARG_OF_PERICENTER":"92.2728","LAUNCH_DATE":"2022-09-11","TIME_SYSTEM":"UTC","APOAPSIS":"540.559","MEAN_MOTION_DOT":"-0.00001410"},{"INCLINATION":"53.2176","MEAN_ANOMALY":"257.4165","TLE_LINE2":"2 53779  53.2176   4.8610 0001316 102.6974 257.4165 15.08837059 33266","BSTAR":"-0.00003741700000","ELEMENT_SET_NO":"999","OBJECT_TYPE":"PAYLOAD","MEAN_ELEMENT_THEORY":"SGP4","EPOCH":"2023-04-11T23:51:57.251232","REV_AT_EPOCH":"3326","DECAY_DATE":null,"MEAN_MOTION_DDOT":"0.0000000000000","ECCENTRICITY":"0.00013160","LAUNCH_DATE":"2022-09-11","ARG_OF_PERICENTER":"102.6974","TLE_LINE1":"1 53779U 22111G   23101.99441263 -.00000883  00000-0 -37417-4 0  9990","APOAPSIS":"540.665","MEAN_MOTION_DOT":"-0.00000883","TIME_SYSTEM":"UTC","MEAN_MOTION":"15.08837059","CLASSIFICATION_TYPE":"U","RCS_SIZE":"LARGE","OBJECT_NAME":"STARLINK-4706","OBJECT_ID":"2022-111G","NORAD_CAT_ID":"53779","CENTER_NAME":"EARTH","PERIOD":"95.438","REF_FRAME":"TEME","RA_OF_ASC_NODE":"4.8610","SITE":"AFETR","SEMIMAJOR_AXIS":"6917.889","GP_ID":"229984306","EPHEMERIS_TYPE":"0","COUNTRY_CODE":"US","FILE":"3886349","PERIAPSIS":"538.844"},{"MEAN_MOTION_DDOT":"0.0000000000000","ECCENTRICITY":"0.00013310","DECAY_DATE":null,"EPOCH":"2023-04-12T00:02:34.038240","REV_AT_EPOCH":"3326","TIME_SYSTEM":"UTC","MEAN_MOTION_DOT":"0.00000029","APOAPSIS":"540.662","TLE_LINE1":"1 53780U 22111H   23102.00178285  .00000029  00000-0  19934-4 0  9990","LAUNCH_DATE":"2022-09-11","ARG_OF_PERICENTER":"80.0360","MEAN_ANOMALY":"280.0782","INCLINATION":"53.2182","OBJECT_TYPE":"PAYLOAD","MEAN_ELEMENT_THEORY":"SGP4","ELEMENT_SET_NO":"999","TLE_LINE2":"2 53780  53.2182   4.9056 0001331  80.0360 280.0782 15.08841208 33263","BSTAR":"0.00001993400000","GP_ID":"229983822","SITE":"AFETR","SEMIMAJOR_AXIS":"6917.877","CENTER_NAME":"EARTH","REF_FRAME":"TEME","PERIOD":"95.437","RA_OF_ASC_NODE":"4.9056","PERIAPSIS":"538.821","FILE":"3886349","COUNTRY_CODE":"US","EPHEMERIS_TYPE":"0","CLASSIFICATION_TYPE":"U","RCS_SIZE":"LARGE","MEAN_MOTION":"15.08841208","NORAD_CAT_ID":"53780","OBJECT_ID":"2022-111H","OBJECT_NAME":"STARLINK-4678"}];
